{
  "norad_id": 64128,
  "name": "STARLINK-11722 [DTC]",
  "history": [
    {
      "epoch": "2026-03-28T15:54:06.251904Z",
      "apogee_km": 357.4211944838762,
      "perigee_km": 354.4568542179577,
      "latitude_deg": 4.917507968962458e-05,
      "longitude_deg": 154.82660588809523,
      "height_km": 356.6475463414182,
      "semi_major_axis_km": 6734.076024350917,
      "eccentricity": 0.0002201,
      "inclination_deg": 42.9987,
      "raan_deg": 219.4324,
      "arg_perigee_deg": 230.8319,
      "mean_anomaly_deg": 129.2354,
      "mean_motion_rev_day": 15.71034562
    }
  ]
}